GOMX-1                  
1 39430U 13066Q   26161.51275196  .00001517  00000+0  23248-3 0  9992
2 39430  97.6495   2.3968 0130160  98.7213 262.8761 14.69434061668932
CUBEBUG-2 (LO-74)       
1 39440U 13066AA  26161.09650600  .00003464  00000+0  32201-3 0  9995
2 39440  97.8902 110.0449 0059087  51.9853 308.6680 14.93705686675936
NEE-02 KRYSAOR          
1 39441U 13066AB  26161.07448939  .00001787  00000+0  19963-3 0  9990
2 39441  97.8886 100.3401 0067744  92.9703 267.9268 14.86588167675143
FUNCUBE-1 (AO-73)       
1 39444U 13066AE  26161.49372911  .00005047  00000+0  31555-3 0  9999
2 39444  97.8263 132.7998 0034999 224.2393 135.6036 15.09407831678653
UWE-3                   
1 39446U 13066AG  26161.13046369  .00003961  00000+0  34171-3 0  9997
2 39446  97.8685 117.1571 0048662 344.7844  15.1910 14.96967920676520
SMDC ONE 2.4            
1 39469U 13072H   26161.48441729  .00008639  00000+0  33538-3 0  9999
2 39469 120.4932 326.2073 0144362  11.8868 348.5561 15.18055669116814
COSMOS 2488 (RODNIK-S 7)
1 39483U 13076A   26161.51765750  .00000016  00000+0  45950-4 0  9999
2 39483  82.4835 172.8505 0020781 109.0153 251.3180 12.42905426565061
COSMOS 2489 (RODNIK-S 8)
1 39484U 13076B   26161.49271693 -.00000001  00000+0 -78224-4 0  9991
2 39484  82.4872 174.2425 0022609 109.1309 251.2221 12.42879284565118
COSMOS 2490 (RODNIK-S 9)
1 39485U 13076C   26161.54509352  .00000044  00000+0  24203-3 0  9996
2 39485  82.4818 172.2802 0022590 123.9983 236.3246 12.42877901565055
KAZEOSAT 1              
1 39731U 14024A   26161.49953334  .00000329  00000+0  11325-3 0  9998
2 39731  98.3204 234.1131 0001466  76.4111 283.7242 14.42078161637595
COSMOS 2496 (RODNIK-S *)
1 39761U 14028A   26161.50263109  .00000066  00000+0  40558-3 0  9999
2 39761  82.4442 112.9176 0021286  92.6218 267.7299 12.42878501546685
COSMOS 2497 (RODNIK-S *)
1 39762U 14028B   26161.55849361  .00000047  00000+0  26534-3 0  9992
2 39762  82.4489 114.5697 0021868  87.7627 272.5956 12.42894044546693
COSMOS 2498 (RODNIK-S *)
1 39763U 14028C   26161.53655388  .00000058  00000+0  34940-3 0  9997
2 39763  82.4451 113.0735 0022557  87.4238 272.9424 12.42980156546729
HODOYOSHI-4             
1 40011U 14033B   26161.51176110  .00000460  00000+0  55445-4 0  9991
2 40011  97.5457 346.6567 0023046 331.2928  28.7020 14.88110227647814
UNISAT-6                
1 40012U 14033C   26161.34253110  .00002394  00000+0  26042-3 0  9997
2 40012  97.7868 314.1760 0046427  91.2128 269.4408 14.88209392645141
DEIMOS-2                
1 40013U 14033D   26161.55127049  .00001598  00000+0  15619-3 0  9995
2 40013  97.5844  36.2729 0001991  58.4165 301.7250 14.93711812636735
BUGSAT-1 (TITA)         
1 40014U 14033E   26161.56586093  .00004491  00000+0  23889-3 0  9998
2 40014  98.0421 253.7278 0027561 200.7629 159.2485 15.15513138654839
SAUDISAT 4              
1 40016U 14033G   26161.28824431  .00000641  00000+0  90933-4 0  9998
2 40016  97.7575 307.6620 0046239  95.7410 264.9076 14.79535246645057
APRIZESAT 9             
1 40018U 14033J   26161.28440399  .00000564  00000+0  90385-4 0  9992
2 40018  97.9051 294.6520 0065227 221.5813 138.0425 14.74205173642546
BRITE-CA1 (TORONTO)     
1 40020U 14033L   26161.31126831  .00000595  00000+0  97300-4 0  9999
2 40020  97.9730 290.3663 0077388 299.4198  59.9301 14.72667174641202
DUCHIFAT-1              
1 40021U 14033M   26161.43136475  .00098092  00000+0  10616-2 0  9990
2 40021  98.0468 219.6499 0004198 126.9864 233.1777 15.63249626654696
NANOSATC-BR1            
1 40024U 14033Q   26160.82160203  .00016529  00000+0  55026-3 0  9991
2 40024  98.0733 192.5577 0003684 183.5527 176.5687 15.31222674652859
